[{"OBJECT_NAME":"STARLINK-11531 [DTC]","OBJECT_ID":"2025-019N","EPOCH":"2026-03-09T02:00:09.851040","MEAN_MOTION":15.70868913,"ECCENTRICITY":0.00024771,"INCLINATION":42.9988,"RA_OF_ASC_NODE":309.7909,"ARG_OF_PERICENTER":247.0626,"MEAN_ANOMALY":112.9981,"EPHEMERIS_TYPE":0,"CLASSIFICATION_TYPE":"U","NORAD_CAT_ID":62841,"ELEMENT_SET_NO":999,"REV_AT_EPOCH":6378,"BSTAR":0.0012164441,"MEAN_MOTION_DOT":0.00158858,"MEAN_MOTION_DDOT":0},{"OBJECT_NAME":"OBJECT E","OBJECT_ID":"2021-035E","EPOCH":"2026-02-24T23:27:52.334784","MEAN_MOTION":15.69205353,"ECCENTRICITY":0.0007182,"INCLINATION":41.4547,"RA_OF_ASC_NODE":257.9148,"ARG_OF_PERICENTER":354.279,"MEAN_ANOMALY":5.7969,"EPHEMERIS_TYPE":0,"CLASSIFICATION_TYPE":"U","NORAD_CAT_ID":63523,"ELEMENT_SET_NO":999,"REV_AT_EPOCH":5075,"BSTAR":0.00060614223,"MEAN_MOTION_DOT":0.00073106,"MEAN_MOTION_DDOT":0}]
